FLOCK 4G-6              
1 62660U 25009BD  26068.71061311  .00012261  00000+0  45910-3 0  9991
2 62660  97.3980 150.7943 0002380 348.2637  11.8546 15.27432125121307
STARLINK-34101          
1 63812U 25092J   26068.32647524  .00031431  00000+0  11467-2 0  9995
2 63812  42.9969 174.2005 0000652 231.9455 128.1338 15.27584887 48500
